{
    "links": {
        "self": "http://www.neowsapp.com/rest/v1/neo/3580666?api_key=iIulBulltgU6a56xZRHN4H3l9WmuAYTsLGpBGhQ2"
    },
    "id": "3580666",
    "neo_reference_id": "3580666",
    "name": "(2011 TB)",
    "designation": "2011 TB",
    "nasa_jpl_url": "http://ssd.jpl.nasa.gov/sbdb.cgi?sstr=3580666",
    "absolute_magnitude_h": 24.0,
    "estimated_diameter": {
        "kilometers": {
            "estimated_diameter_min": 0.0421264611,
            "estimated_diameter_max": 0.0941976306
        },
        "meters": {
            "estimated_diameter_min": 42.1264610556,
            "estimated_diameter_max": 94.1976305719
        },
        "miles": {
            "estimated_diameter_min": 0.0261761612,
            "estimated_diameter_max": 0.0585316759
        },
        "feet": {
            "estimated_diameter_min": 138.2101784897,
            "estimated_diameter_max": 309.0473542854
        }
    },
    "is_potentially_hazardous_asteroid": false,
    "close_approach_data": [
        {
            "close_approach_date": "2011-09-25",
            "close_approach_date_full": "2011-Sep-25 03:43",
            "epoch_date_close_approach": 1316922180000,
            "relative_velocity": {
                "kilometers_per_second": "13.89619577",
                "kilometers_per_hour": "50026.3047720126",
                "miles_per_hour": "31084.4003179208"
            },
            "miss_distance": {
                "astronomical": "0.0651990299",
                "lunar": "25.3624226311",
                "kilometers": "9753635.999106313",
                "miles": "6060628.3747725994"
            },
            "orbiting_body": "Earth"
        }
    ],
    "orbital_data": {
        "orbit_id": "8",
        "orbit_determination_date": "2017-04-06 08:52:34",
        "first_observation_date": "2011-10-01",
        "last_observation_date": "2011-10-06",
        "data_arc_in_days": 5,
        "observations_used": 31,
        "orbit_uncertainty": "9",
        "minimum_orbit_intersection": ".0511299",
        "jupiter_tisserand_invariant": "3.254",
        "epoch_osculation": "2455836.5",
        "eccentricity": ".6030574802974185",
        "semi_major_axis": "2.369847508685647",
        "inclination": "10.55155850273752",
        "ascending_node_longitude": "191.0407246148146",
        "orbital_period": "1332.536240663222",
        "perihelion_distance": ".9406932414085664",
        "perihelion_argument": "126.5798637558558",
        "aphelion_distance": "3.799001775962728",
        "perihelion_time": "2455797.088678821373",
        "mean_anomaly": "10.64742195472606",
        "mean_motion": ".2701615078182211",
        "equinox": "J2000",
        "orbit_class": {
            "orbit_class_type": "APO",
            "orbit_class_description": "Near-Earth asteroid orbits which cross the Earth’s orbit similar to that of 1862 Apollo",
            "orbit_class_range": "a (semi-major axis) > 1.0 AU; q (perihelion) < 1.017 AU"
        }
    },
    "is_sentry_object": false
}